OBJECT_NAME,OBJECT_ID,EPOCH,MEAN_MOTION,ECCENTRICITY,INCLINATION,RA_OF_ASC_NODE,ARG_OF_PERICENTER,MEAN_ANOMALY,EPHEMERIS_TYPE,CLASSIFICATION_TYPE,NORAD_CAT_ID,ELEMENT_SET_NO,REV_AT_EPOCH,BSTAR,MEAN_MOTION_DOT,MEAN_MOTION_DDOT
STARLINK-3576,2022-022AH,2024-09-27T20:25:48.788832,15.08837336,.0001237,53.2147,208.8637,89.7488,270.3646,0,U,51883,999,14355,.18123E-3,.2597E-4,0
STARLINK-3577,2022-022AJ,2024-09-27T20:15:11.057472,15.08836110,.0001216,53.2167,208.7118,98.5536,261.5594,0,U,51884,999,14364,.14963E-3,.2094E-4,0
STARLINK-3584,2022-022AK,2024-09-28T02:15:31.358880,15.08850902,.0001658,53.2177,207.5871,102.6883,257.4295,0,U,51885,999,14359,-.373E-4,-.882E-5,0
STARLINK-3565,2022-022AL,2024-09-27T13:43:02.228448,15.08839845,.0001496,53.2170,209.9326,100.1380,259.9781,0,U,51886,999,14352,-.39334E-5,-.351E-5,0
STARLINK-3551,2022-022AM,2024-09-28T02:10:13.393056,15.08847527,.0001415,53.2144,207.6052,94.8243,265.2911,0,U,51887,999,14359,.17983E-3,.2576E-4,0
STARLINK-3536,2022-022AN,2024-09-28T02:20:49.459488,15.08848473,.0001594,53.2164,207.5698,97.2564,262.8610,0,U,51888,999,14360,.31891E-3,.4792E-4,0
STARLINK-3547,2022-022AP,2024-09-28T01:54:19.807488,15.08845153,.0001518,53.2167,207.6560,88.0892,272.0274,0,U,51889,999,14359,.95165E-4,.1227E-4,0
STARLINK-3519,2022-022AQ,2024-09-27T04:59:43.608768,15.20807123,.000945,53.2067,205.8660,93.9843,266.2235,0,U,51890,999,14354,.29157E-2,.65426E-3,0
STARLINK-3549,2022-022AR,2024-09-28T01:49:01.827840,15.08849363,.0001524,53.2174,207.6729,95.0172,265.0994,0,U,51891,999,14364,.24803E-4,.107E-5,0
STARLINK-3587,2022-022AS,2024-09-27T13:16:32.671488,15.08841663,.000164,53.2157,210.0204,86.0896,274.0283,0,U,51892,999,14351,.30925E-3,.4637E-4,0
STARLINK-3579,2022-022AT,2024-09-28T01:38:26.320416,15.08841773,.0001316,53.2159,207.7094,113.5828,246.5303,0,U,51893,999,14365,.64247E-3,.9952E-4,0
STARLINK-3595,2022-022AU,2024-09-27T19:22:11.656704,15.08834711,.0001368,53.2144,208.8783,88.8658,271.2491,0,U,51894,999,14361,.41065E-4,.366E-5,0
STARLINK-3594,2022-022AV,2024-09-27T12:50:02.895936,15.08840371,.0001411,53.2157,210.1021,95.4127,264.7026,0,U,51895,999,14351,.12891E-3,.1764E-4,0
STARLINK-3593,2022-022AW,2024-09-28T02:04:58.004544,15.08845115,.0001264,53.2157,207.8446,91.4899,268.6238,0,U,51896,999,14364,.43393E-4,.403E-5,0
STARLINK-3598,2022-022AX,2024-09-28T03:03:13.340736,15.08845176,.0001185,53.2155,207.4416,86.7702,273.3426,0,U,51897,999,14360,.7382E-3,.11482E-3,0
STARLINK-3597,2022-022AY,2024-09-27T20:36:22.954464,15.08834991,.0001277,53.2157,208.6511,106.1576,253.9557,0,U,51898,999,14361,.25654E-4,.12E-5,0
2022-023A,2022-023A,2024-09-28T02:49:02.049312,15.18485141,.0087297,63.4555,241.8414,328.3758,31.2126,0,U,51946,999,14250,.98411E-3,.2239E-3,0
2022-023B,2022-023B,2024-09-28T02:43:26.870016,15.18367786,.0082407,63.4502,241.3686,334.8980,24.8135,0,U,51947,999,14250,.23347E-2,.52889E-3,0
2022-023C,2022-023C,2024-09-27T18:59:18.323520,15.18346990,.0079966,63.4663,242.9822,340.3539,19.4497,0,U,51948,999,14245,.94485E-3,.21048E-3,0
2022-023D,2022-023D,2024-09-28T02:58:18.041088,15.18199251,.0083125,63.4815,242.8728,339.4935,20.2846,0,U,51949,999,14250,.96471E-3,.21548E-3,0
2022-023E,2022-023E,2024-09-27T19:19:07.526208,13.56135691,.0102212,63.4623,152.3305,348.5545,11.3164,0,U,51950,999,13694,.34313E-3,.157E-5,0
2022-023F,2022-023F,2024-09-28T01:28:18.415200,15.18112128,.0086959,63.5011,243.7216,343.0029,16.8174,0,U,51951,999,14249,.93518E-3,.21005E-3,0
STARLINK-3700,2022-025A,2024-09-27T04:33:37.996704,15.08029828,.0001433,53.0549,236.0684,103.8095,256.3054,0,U,51956,999,14136,.31943E-4,.211E-5,0
STARLINK-3694,2022-025B,2024-09-28T01:54:03.725856,15.06400713,.0001446,53.0542,244.4049,93.4779,266.6375,0,U,51957,999,14243,.77418E-4,.872E-5,0
STARLINK-3692,2022-025C,2024-09-27T07:39:00.640224,15.08028632,.0001399,53.0528,235.4972,98.2718,261.8431,0,U,51958,999,14138,.49422E-4,.484E-5,0
STARLINK-3704,2022-025D,2024-09-27T08:28:26.095584,15.06395325,.0001422,53.0544,247.6368,95.2531,264.8620,0,U,51959,999,14121,.62334E-4,.647E-5,0
STARLINK-3691,2022-025E,2024-09-28T01:48:45.474048,15.06403843,.0001599,53.0549,244.3973,96.4432,263.6739,0,U,51960,999,14241,-.21901E-4,-.608E-5,0
STARLINK-3689,2022-025F,2024-09-28T02:13:43.748544,15.09432854,.000187,53.0527,231.7794,95.8180,264.3023,0,U,51961,999,14261,.19971E-3,.2942E-4,0
STARLINK-3697,2022-025G,2024-09-27T07:31:28.752672,15.06398603,.0001513,53.0542,238.3954,103.9523,256.1635,0,U,51962,999,14134,.23369E-4,.67E-6,0
STARLINK-3675,2022-025H,2024-09-28T02:34:35.531616,15.08017456,.0001652,53.0542,231.9322,100.6584,259.4592,0,U,51963,999,14259,.12012E-3,.1584E-4,0
