51883,STARLINK-3576,2022,95.44,260.0,+,53.22,Active,1,LEO,USA,USA,Commercial,Communications,Falcon,1 51883U 22022AH  24271.85125913  .00002597  00000+0  18123-3 0  9993,2 51883  53.2147 208.8637 0001237  89.7488 270.3646 15.08837336143550,15.08837336,0.0001237,LEO
51884,STARLINK-3577,2022,95.44,260.0,+,53.22,Active,1,LEO,USA,USA,Commercial,Communications,Falcon,1 51884U 22022AJ  24271.84387798  .00002094  00000+0  14963-3 0  9994,2 51884  53.2167 208.7118 0001216  98.5536 261.5594 15.08836110143648,15.0883611,0.0001216,LEO
51885,STARLINK-3584,2022,95.44,260.0,+,53.22,Active,1,LEO,USA,USA,Commercial,Communications,Falcon,1 51885U 22022AK  24272.09411295 -.00000882  00000+0 -37300-4 0  9999,2 51885  53.2177 207.5871 0001658 102.6883 257.4295 15.08850902143596,15.08850902,0.0001658,LEO
51886,STARLINK-3565,2022,95.44,260.0,+,53.22,Active,1,LEO,USA,USA,Commercial,Communications,Falcon,1 51886U 22022AL  24271.57155357 -.00000351  00000+0 -39334-5 0  9997,2 51886  53.2170 209.9326 0001496 100.1380 259.9781 15.08839845143529,15.08839845,0.0001496,LEO
51887,STARLINK-3551,2022,95.44,260.0,+,53.21,Active,1,LEO,USA,USA,Commercial,Communications,Falcon,1 51887U 22022AM  24272.09043279  .00002576  00000+0  17983-3 0  9998,2 51887  53.2144 207.6052 0001415  94.8243 265.2911 15.08847527143598,15.08847527,0.0001415,LEO
51888,STARLINK-3536,2022,95.44,260.0,+,53.22,Active,1,LEO,USA,USA,Commercial,Communications,Falcon,1 51888U 22022AN  24272.09779467  .00004792  00000+0  31891-3 0  9990,2 51888  53.2164 207.5698 0001594  97.2564 262.8610 15.08848473143609,15.08848473,0.0001594,LEO
51889,STARLINK-3547,2022,95.44,260.0,+,53.22,Active,1,LEO,USA,USA,Commercial,Communications,Falcon,1 51889U 22022AP  24272.07939592  .00001227  00000+0  95165-4 0  9991,2 51889  53.2167 207.6560 0001518  88.0892 272.0274 15.08845153143599,15.08845153,0.0001518,LEO
51890,STARLINK-3519,2022,94.69,260.0,P,53.21,Active,1,LEO,USA,USA,Commercial,Communications,Falcon,1 51890U 22022AQ  24271.20814362  .00065426  00000+0  29157-2 0  9991,2 51890  53.2067 205.8660 0009450  93.9843 266.2235 15.20807123143541,15.20807123,0.000945,LEO
51891,STARLINK-3549,2022,95.44,260.0,+,53.22,Active,1,LEO,USA,USA,Commercial,Communications,Falcon,1 51891U 22022AR  24272.07571560  .00000107  00000+0  24803-4 0  9998,2 51891  53.2174 207.6729 0001524  95.0172 265.0994 15.08849363143647,15.08849363,0.0001524,LEO
51892,STARLINK-3587,2022,95.44,260.0,+,53.22,Active,1,LEO,USA,USA,Commercial,Communications,Falcon,1 51892U 22022AS  24271.55315592  .00004637  00000+0  30925-3 0  9995,2 51892  53.2157 210.0204 0001640  86.0896 274.0283 15.08841663143519,15.08841663,0.000164,LEO
51893,STARLINK-3579,2022,95.44,260.0,+,53.21,Active,1,LEO,USA,USA,Commercial,Communications,Falcon,1 51893U 22022AT  24272.06836019  .00009952  00000+0  64247-3 0  9994,2 51893  53.2159 207.7094 0001316 113.5828 246.5303 15.08841773143657,15.08841773,0.0001316,LEO
51894,STARLINK-3595,2022,95.44,260.0,+,53.22,Active,1,LEO,USA,USA,Commercial,Communications,Falcon,1 51894U 22022AU  24271.80707936  .00000366  00000+0  41065-4 0  9995,2 51894  53.2144 208.8783 0001368  88.8658 271.2491 15.08834711143614,15.08834711,0.0001368,LEO
51895,STARLINK-3594,2022,95.44,260.0,+,53.22,Active,1,LEO,USA,USA,Commercial,Communications,Falcon,1 51895U 22022AV  24271.53475574  .00001764  00000+0  12891-3 0  9993,2 51895  53.2157 210.1021 0001411  95.4127 264.7026 15.08840371143513,15.08840371,0.0001411,LEO
51896,STARLINK-3593,2022,95.44,260.0,+,53.22,Active,1,LEO,USA,USA,Commercial,Communications,Falcon,1 51896U 22022AW  24272.08678246  .00000403  00000+0  43393-4 0  9997,2 51896  53.2157 207.8446 0001264  91.4899 268.6238 15.08845115143649,15.08845115,0.0001264,LEO
51897,STARLINK-3598,2022,95.44,260.0,+,53.21,Active,1,LEO,USA,USA,Commercial,Communications,Falcon,1 51897U 22022AX  24272.12723774  .00011482  00000+0  73820-3 0  9996,2 51897  53.2155 207.4416 0001185  86.7702 273.3426 15.08845176143608,15.08845176,0.0001185,LEO
51898,STARLINK-3597,2022,95.44,260.0,+,53.22,Active,1,LEO,USA,USA,Commercial,Communications,Falcon,1 51898U 22022AY  24271.85859901  .00000120  00000+0  25654-4 0  9998,2 51898  53.2157 208.6511 0001277 106.1576 253.9557 15.08834991143611,15.08834991,0.0001277,LEO
51946,OBJECT A,2022,94.83,190.0,+,63.46,Active,1,LEO,PRC,China,Commercial,Communications,Long March,1 51946U 22023A   24272.11738483  .00022390  00000+0  98411-3 0  9997,2 51946  63.4555 241.8414 0087297 328.3758  31.2126 15.18485141142503,15.18485141,0.0087297,LEO
51947,OBJECT B,2022,94.82,190.0,+,63.45,Active,1,LEO,PRC,China,Commercial,Communications,Long March,1 51947U 22023B   24272.11350544  .00052889  00000+0  23347-2 0  9997,2 51947  63.4502 241.3686 0082407 334.8980  24.8135 15.18367786142501,15.18367786,0.0082407,LEO
51948,OBJECT C,2022,94.84,190.0,+,63.47,Active,1,LEO,PRC,China,Commercial,Communications,Long March,1 51948U 22023C   24271.79118430  .00021048  00000+0  94485-3 0  9992,2 51948  63.4663 242.9822 0079966 340.3539  19.4497 15.18346990142456,15.1834699,0.0079966,LEO
51949,OBJECT D,2022,94.85,190.0,+,63.48,Active,1,LEO,PRC,China,Commercial,Communications,Long March,1 51949U 22023D   24272.12381992  .00021548  00000+0  96471-3 0  9998,2 51949  63.4815 242.8728 0083125 339.4935  20.2846 15.18199251142501,15.18199251,0.0083125,LEO
51950,OBJECT E,2022,106.18,190.0,+,63.46,Active,1,LEO,PRC,China,Commercial,Communications,Long March,1 51950U 22023E   24271.80494822  .00000157  00000+0  34313-3 0  9991,2 51950  63.4623 152.3305 0102212 348.5545  11.3164 13.56135691136946,13.56135691,0.0102212,LEO
51951,OBJECT F,2022,94.84,190.0,+,63.5,Active,1,LEO,PRC,China,Commercial,Communications,Long March,1 51951U 22023F   24272.06132425  .00021005  00000+0  93518-3 0  9996,2 51951  63.5011 243.7216 0086959 343.0029  16.8174 15.18112128142499,15.18112128,0.0086959,LEO
51956,STARLINK-3700,2022,95.49,260.0,+,53.05,Active,1,LEO,USA,USA,Commercial,Communications,Falcon,1 51956U 22025A   24271.19002311  .00000211  00000+0  31943-4 0  9997,2 51956  53.0549 236.0684 0001433 103.8095 256.3054 15.08029828141363,15.08029828,0.0001433,LEO
51957,STARLINK-3694,2022,95.59,260.0,+,53.05,Active,1,LEO,USA,USA,Commercial,Communications,Falcon,1 51957U 22025B   24272.07920979  .00000872  00000+0  77418-4 0  9995,2 51957  53.0542 244.4049 0001446  93.4779 266.6375 15.06400713142435,15.06400713,0.0001446,LEO
51958,STARLINK-3692,2022,95.49,260.0,+,53.05,Active,1,LEO,USA,USA,Commercial,Communications,Falcon,1 51958U 22025C   24271.31875741  .00000484  00000+0  49422-4 0  9991,2 51958  53.0528 235.4972 0001399  98.2718 261.8431 15.08028632141389,15.08028632,0.0001399,LEO
51959,STARLINK-3704,2022,95.59,260.0,+,53.05,Active,1,LEO,USA,USA,Commercial,Communications,Falcon,1 51959U 22025D   24271.35307981  .00000647  00000+0  62334-4 0  9990,2 51959  53.0544 247.6368 0001422  95.2531 264.8620 15.06395325141218,15.06395325,0.0001422,LEO
51960,STARLINK-3691,2022,95.59,260.0,+,53.06,Active,1,LEO,USA,USA,Commercial,Communications,Falcon,1 51960U 22025E   24272.07552632 -.00000608  00000+0 -21901-4 0  9991,2 51960  53.0549 244.3973 0001599  96.4432 263.6739 15.06403843142415,15.06403843,0.0001599,LEO
51961,STARLINK-3689,2022,95.4,260.0,+,53.05,Active,1,LEO,USA,USA,Commercial,Communications,Falcon,1 51961U 22025F   24272.09286746  .00002942  00000+0  19971-3 0  9998,2 51961  53.0527 231.7794 0001870  95.8180 264.3023 15.09432854142611,15.09432854,0.000187,LEO
51962,STARLINK-3697,2022,95.59,260.0,+,53.05,Active,1,LEO,USA,USA,Commercial,Communications,Falcon,1 51962U 22025G   24271.31352723  .00000067  00000+0  23369-4 0  9995,2 51962  53.0542 238.3954 0001513 103.9523 256.1635 15.06398603141343,15.06398603,0.0001513,LEO
51963,STARLINK-3675,2022,95.49,260.0,+,53.05,Active,1,LEO,USA,USA,Commercial,Communications,Falcon,1 51963U 22025H   24272.10735569  .00001584  00000+0  12012-3 0  9994,2 51963  53.0542 231.9322 0001652 100.6584 259.4592 15.08017456142599,15.08017456,0.0001652,LEO
